BEESAT-7                
1 48084U 21022AN  23231.66539336  .00022599  00000+0  97665-3 0  9995
2 48084  97.4849 130.2802 0017888 106.3404 253.9801 15.22340031131311
BEESAT-8                
1 48085U 21022AP  23232.49521683  .00010195  00000+0  50821-3 0  9996
2 48085  97.4912 130.2377 0019073 106.9316 253.4010 15.17578385131930
LEDSAT                  
1 49069U 21073D   23232.72760616  .00009256  00000+0  49195-3 0  9990
2 49069  97.4782 302.5454 0022057 255.2588 104.6200 15.15298245110671
SPORT                   
1 55129U 98067UW  23231.92871454  .00141648  00000+0  69286-3 0  9990
2 55129  51.6276 349.9258 0006834 336.3620  23.7067 15.81319563 36584
OPTIMAL-1               
1 55183U 98067VA  23232.53253833  .02842506  12052-4  83546-3 0  9996
2 55183  51.6348 335.8353 0012155 331.0913  28.9434 16.26255780 35544
